NORAD_CAT_ID,OBJECT_NAME,OBJECT_TYPE,EPOCH,MEAN_MOTION,ECCENTRICITY,INCLINATION,RA_OF_ASC_NODE,ARG_OF_PERICENTER,MEAN_ANOMALY,BSTAR,MEAN_MOTION_DOT,MEAN_MOTION_DDOT,TLE_LINE0,TLE_LINE1,TLE_LINE2,SEMIMAJOR_AXIS,PERIOD,APOGEE,PERIGEE,DECAYED
50827.0,STARLINK-3329,PAYLOAD,2022-05-04 22:00:01,15.08851243,0.0001863,53.2184,355.3985,53.0052,188.5816,0.00010456,1.377e-05,0.0,0 STARLINK-3329,1 50827U 22001AA  22124.91668981  .00001377  00000-0  10456-3 0  9993,2 50827  53.2184 355.3985 0001863  53.0052 188.5816 15.08851243  3601,6917.846,95.437,541.0,538.422,0.0
50827.0,STARLINK-3329,PAYLOAD,2022-05-05 06:00:00,15.08886129,0.0001788,53.218,353.9017,52.0158,201.1093,-0.0035383,-0.00056232,0.0,0 STARLINK-3329,1 50827U 22001AA  22125.25001157 -.00056232  00000-0 -35383-2 0  9994,2 50827  53.2180 353.9017 0001788  52.0158 201.1093 15.08886129 19651,6917.739000000001,95.435,540.841,538.368,0.0
50827.0,STARLINK-3329,PAYLOAD,2022-05-05 14:00:01,15.08832918,0.0001628,53.2181,352.4041,57.6771,207.0775,0.002297,0.00036451,0.0,0 STARLINK-3329,1 50827U 22001AA  22125.58334491  .00036451  00000-0  22970-2 0  9997,2 50827  53.2181 352.4041 0001628  57.6771 207.0775 15.08832918  3560,6917.901999999999,95.438,540.893,538.641,0.0
50827.0,STARLINK-3329,PAYLOAD,2022-05-05 22:00:00,15.08849778,0.000178,53.2179,350.9095,52.1283,224.2292,0.00014281,1.986e-05,0.0,0 STARLINK-3329,1 50827U 22001AA  22125.91667824  .00001986  00000-0  14281-3 0  9995,2 50827  53.2179 350.9095 0001780  52.1283 224.2292 15.08849778 19751,6917.851,95.437,540.947,538.484,0.0
50827.0,STARLINK-3329,PAYLOAD,2022-05-06 14:00:01,15.08830342,0.0001541999999999,53.2177,347.915,56.6637,242.9103,0.0023402,0.00037143,0.0,0 STARLINK-3329,1 50827U 22001AA  22126.58334491  .00037143  00000-0  23402-2 0  9998,2 50827  53.2177 347.9150 0001542  56.6637 242.9103 15.08830342  3618,6917.91,95.438,540.842,538.7080000000002,0.0
50827.0,STARLINK-3329,PAYLOAD,2022-05-06 22:00:00,15.08845912,0.0001684,53.2177,346.4205,49.309,261.8622,-0.0023026999999999,-0.00036755,0.0,0 STARLINK-3329,1 50827U 22001AA  22126.91667824 -.00036755  00000-0 -23027-2 0  9997,2 50827  53.2177 346.4205 0001684  49.3090 261.8622 15.08845912 19906,6917.861999999999,95.437,540.8919999999998,538.562,0.0
50827.0,STARLINK-3329,PAYLOAD,2022-05-07 14:00:01,15.08826282,0.0001534,53.2177,343.4259,54.6959,279.6464,0.0021778,0.00034529,0.0,0 STARLINK-3329,1 50827U 22001AA  22127.58334491  .00034529  00000-0  21778-2 0  9998,2 50827  53.2177 343.4259 0001534  54.6959 279.6464 15.08826282 20002,6917.922,95.438,540.849,538.726,0.0
50827.0,STARLINK-3329,PAYLOAD,2022-05-07 22:00:00,15.088389,0.0001742,53.2177,341.9315,48.7679,297.1704,0.0007185,0.00011165,0.0,0 STARLINK-3329,1 50827U 22001AA  22127.91667824  .00011165  00000-0  71850-3 0  9992,2 50827  53.2177 341.9315 0001742  48.7679 297.1704 15.08838900  3599,6917.884,95.438,540.9540000000002,538.544,0.0
50827.0,STARLINK-3329,PAYLOAD,2022-05-08 06:00:00,15.08873258,0.0001714,53.2176,340.4342,49.2025,308.3291,-0.0044914,-0.00071129,0.0,0 STARLINK-3329,1 50827U 22001AA  22128.25001157 -.00071129  00000-0 -44914-2 0  9999,2 50827  53.2176 340.4342 0001714  49.2025 308.3291 15.08873258 20109,6917.779,95.435,540.8290000000002,538.4580000000002,0.0
50827.0,STARLINK-3329,PAYLOAD,2022-05-08 14:00:01,15.08826628,0.0001718,53.218,338.9369999999999,56.9393,312.1958,0.0018457,0.00029198,0.0,0 STARLINK-3329,1 50827U 22001AA  22128.58334491  .00029198  00000-0  18457-2 0  9995,2 50827  53.2180 338.9370 0001718  56.9393 312.1958 15.08826628  3613,6917.920999999999,95.438,540.975,538.5980000000002,0.0
50827.0,STARLINK-3329,PAYLOAD,2022-05-08 20:00:01,15.08843605,0.0001851,53.2178,337.8162,51.7144,236.1146,-0.00045572,-7.534e-05,0.0,0 STARLINK-3329,1 50827U 22001AA  22128.83334491 -.00007534  00000-0 -45572-3 0  9994,2 50827  53.2178 337.8162 0001851  51.7144 236.1146 15.08843605 20192,6917.869000000002,95.437,541.015,538.4540000000002,0.0
50827.0,STARLINK-3329,PAYLOAD,2022-05-08 22:00:00,15.08835383,0.0001891,53.218,337.4425,50.69600000000001,330.034,0.00080494,0.00012544,0.0,0 STARLINK-3329,1 50827U 22001AA  22128.91667824  .00012544  00000-0  80494-3 0  9999,2 50827  53.2180 337.4425 0001891  50.6960 330.0340 15.08835383  3602,6917.895,95.438,541.068,538.451,0.0
50827.0,STARLINK-3329,PAYLOAD,2022-05-09 14:00:01,15.08832131,0.0001683,53.2183,334.4480000000001,54.6137,349.3713,0.0015266,0.00024086,0.0,0 STARLINK-3329,1 50827U 22001AA  22129.58335648  .00024086  00000-0  15266-2 0  9997,2 50827  53.2183 334.4480 0001683  54.6137 349.3713 15.08832131  3607,6917.904,95.438,540.934,538.605,0.0
50827.0,STARLINK-3329,PAYLOAD,2022-05-09 22:00:00,15.08836059,0.0001856,53.2184,332.9536,48.4005,7.1204,0.0012515999999999,0.00019685,0.0,0 STARLINK-3329,1 50827U 22001AA  22129.91667824  .00019685  00000-0  12516-2 0  9992,2 50827  53.2184 332.9536 0001856  48.4005   7.1204 15.08836059  3607,6917.892,95.438,541.0409999999998,538.4730000000002,0.0
50827.0,STARLINK-3329,PAYLOAD,2022-05-10 00:00:00,15.08827978,0.000184,53.2183,332.5796,46.2244,102.1992,0.0025929,0.00041206,0.0,0 STARLINK-3329,1 50827U 22001AA  22130.00001157  .00041206  00000-0  25929-2 0  9991,2 50827  53.2183 332.5796 0001840  46.2244 102.1992 15.08827978 20366,6917.917,95.438,541.055,538.509,0.0
50827.0,STARLINK-3329,PAYLOAD,2022-05-10 14:00:01,15.0883475,0.0001626,53.2185,329.9592,52.709,26.0007,0.000996,0.00015597,0.0,0 STARLINK-3329,1 50827U 22001AA  22130.58334491  .00015597  00000-0  99600-3 0  9996,2 50827  53.2185 329.9592 0001626  52.7090  26.0007 15.08834750 20452,6917.896,95.438,540.886,538.637,0.0
50827.0,STARLINK-3329,PAYLOAD,2022-05-10 18:00:00,15.0884576,0.0001725,53.2184,329.2122,49.3567,215.146,-0.00098633,-0.00015954,0.0,0 STARLINK-3329,1 50827U 22001AA  22130.75001157 -.00015954  00000-0 -98633-3 0  9999,2 50827  53.2184 329.2122 0001725  49.3567 215.1460 15.08845760  3586,6917.863,95.437,540.9209999999998,538.534,0.0
50827.0,STARLINK-3329,PAYLOAD,2022-05-11 22:00:00,15.0881902,0.0001871,53.2182,323.9759,49.7934,75.2765,0.0021567,0.00034183,0.0,0 STARLINK-3329,1 50827U 22001AA  22131.91667824  .00034183  00000-0  21567-2 0  9991,2 50827  53.2182 323.9759 0001871  49.7934  75.2765 15.08819020 20655,6917.945,95.439,541.104,538.515,0.0
50827.0,STARLINK-3329,PAYLOAD,2022-05-12 14:00:01,15.08874906,0.0001675999999999,53.218,320.9816,56.3466,91.9091,-0.001816,-0.00029101,0.0,0 STARLINK-3329,1 50827U 22001AA  22132.58334491 -.00029101  00000-0 -18160-2 0  9997,2 50827  53.2180 320.9816 0001676  56.3466  91.9091 15.08874906  1303,6917.774,95.435,540.798,538.479,0.0
50827.0,STARLINK-3329,PAYLOAD,2022-05-12 20:00:01,15.0884887,0.0001781,53.2176,319.8607,50.4523,16.5271,-0.0010574,-0.00017081,0.0,0 STARLINK-3329,1 50827U 22001AA  22132.83334491 -.00017081  00000-0 -10574-2 0  9990,2 50827  53.2176 319.8607 0001781  50.4523  16.5271 15.08848870 20797,6917.853,95.437,540.95,538.486,0.0
50827.0,STARLINK-3329,PAYLOAD,2022-05-12 22:00:00,15.08820266,0.0001773,53.2176,319.4868,48.1529,111.7353,0.0026701,0.0004244,0.0,0 STARLINK-3329,1 50827U 22001AA  22132.91667824  .00042440  00000-0  26701-2 0  9992,2 50827  53.2176 319.4868 0001773  48.1529 111.7353 15.08820266  1307,6917.941,95.439,541.0319999999998,538.5790000000002,0.0
50827.0,STARLINK-3329,PAYLOAD,2022-05-13 14:00:01,15.08842512,0.000171,53.2174,316.4925,57.394,125.6815,-0.00083581,-0.00013566,0.0,0 STARLINK-3329,1 50827U 22001AA  22133.58334491 -.00013566  00000-0 -83581-3 0  9996,2 50827  53.2174 316.4925 0001710  57.3940 125.6815 15.08842512  1301,6917.873000000001,95.437,540.9209999999998,538.555,0.0
50827.0,STARLINK-3329,PAYLOAD,2022-05-13 22:00:00,15.08819743,0.0001846,53.217,314.9976,50.4576,144.2157,0.0019402,0.00030708,0.0,0 STARLINK-3329,1 50827U 22001AA  22133.91667824  .00030708  00000-0  19402-2 0  9997,2 50827  53.2170 314.9976 0001846  50.4576 144.2157 15.08819743 20953,6917.941999999999,95.439,541.0840000000002,538.53,0.0
50827.0,STARLINK-3329,PAYLOAD,2022-05-14 14:00:01,15.08845569,0.0001671,53.2168,312.0033,55.3464,162.4973,-0.00017728,-3.109e-05,0.0,0 STARLINK-3329,1 50827U 22001AA  22134.58334491 -.00003109  00000-0 -17728-3 0  9999,2 50827  53.2168 312.0033 0001671  55.3464 162.4973 15.08845569 21054,6917.863,95.437,540.884,538.572,0.0
50827.0,STARLINK-3329,PAYLOAD,2022-05-14 22:00:00,15.08827261,0.0001843,53.2167,310.5082,48.3302,181.1193,0.0031209,0.00049715,0.0,0 STARLINK-3329,1 50827U 22001AA  22134.91667824  .00049715  00000-0  31209-2 0  9995,2 50827  53.2167 310.5082 0001843  48.3302 181.1193 15.08827261  1301,6917.919,95.438,541.059,538.509,0.0
50827.0,STARLINK-3329,PAYLOAD,2022-05-15 14:00:01,15.08852619,0.0001701,53.2168,307.5137,52.7915,199.8935,-0.0027287,-0.00043469,0.0,0 STARLINK-3329,1 50827U 22001AA  22135.58335648 -.00043469  00000-0 -27287-2 0  9998,2 50827  53.2168 307.5137 0001701  52.7915 199.8935 15.08852619 21218,6917.842,95.437,540.884,538.53,0.0
50827.0,STARLINK-3329,PAYLOAD,2022-05-15 22:00:00,15.08805114,0.000189,53.2168,306.0187,46.6715,217.5517,0.0040828,0.0006523,0.0,0 STARLINK-3329,1 50827U 22001AA  22135.91667824  .00065230  00000-0  40828-2 0  9993,2 50827  53.2168 306.0187 0001890  46.6715 217.5517 15.08805114  1306,6917.986999999999,95.44,541.16,538.545,0.0
50827.0,STARLINK-3329,PAYLOAD,2022-05-16 06:00:02,15.08835684,0.000177,53.2171,304.5203,51.2513,224.6174,0.0011673,0.00018336,0.0,0 STARLINK-3329,1 50827U 22001AA  22136.25002315  .00018336  00000-0  11673-2 0  9990,2 50827  53.2171 304.5203 0001770  51.2513 224.6174 15.08835684 21313,6917.894,95.438,540.9830000000002,538.534,0.0
50827.0,STARLINK-3329,PAYLOAD,2022-05-16 14:00:01,15.0886035,0.0001862,53.2173,303.0243,53.6801,233.7161,-0.0032324,-0.00051394,0.0,0 STARLINK-3329,1 50827U 22001AA  22136.58334491 -.00051394  00000-0 -32324-2 0  9998,2 50827  53.2173 303.0243 0001862  53.6801 233.7161 15.08860350  1303,6917.818,95.436,540.971,538.395,0.0
